IRIDIUM 33              
1 24946U 97051C   26164.24828982  .00000220  00000+0  70155-4 0  9994
2 24946  86.3872 351.6111 0007409 355.3710   4.7416 14.35147805504529
IRIDIUM 33 DEB          
1 33773U 97051L   26164.23861172  .00000772  00000+0  22188-3 0  9993
2 33773  86.4009 343.2435 0008903 269.7982  90.2199 14.43645477909800
IRIDIUM 33 DEB          
1 33775U 97051N   26164.25500094  .00001344  00000+0  40368-3 0  9996
2 33775  86.3627 331.6139 0010703 280.6167 200.7452 14.42016186907702
IRIDIUM 33 DEB          
1 33776U 97051P   26164.29780211  .00000612  00000+0  19361-3 0  9998
2 33776  86.4043   4.0829 0013160 326.1420 207.3527 14.38537600907060
IRIDIUM 33 DEB          
1 33777U 97051Q   26164.12656390  .00003896  00000+0  86513-3 0  9991
2 33777  86.3770 315.7957 0006980  21.5513 338.5987 14.56838530911880
IRIDIUM 33 DEB          
1 33850U 97051T   26164.18024536  .00000691  00000+0  20193-3 0  9992
2 33850  86.3403 311.7131 0009172 290.3256 243.0408 14.42676543907827
IRIDIUM 33 DEB          
1 33853U 97051W   26164.04604572  .00000580  00000+0  31703-3 0  9990
2 33853  85.9980 269.8083 0208623  37.8072 138.5279 13.99850318878956
IRIDIUM 33 DEB          
1 33860U 97051AD  26164.17621569  .00006500  00000+0  10748-2 0  9990
2 33860  86.3808 306.2869 0010514  79.4114  97.5558 14.70185963914003
IRIDIUM 33 DEB          
1 33862U 97051AF  26164.16315399  .00007697  00000+0  11598-2 0  9994
2 33862  86.4074 316.8133 0049268 153.6334  19.2146 14.73444168915068
IRIDIUM 33 DEB          
1 33866U 97051AK  26163.61718995  .00002922  00000+0  11335-2 0  9991
2 33866  86.3019  16.0174 0111853 297.9147 115.4942 14.26306884894023
IRIDIUM 33 DEB          
1 33870U 97051AP  26163.99706345  .00001839  00000+0  50165-3 0  9994
2 33870  86.3745 340.0889 0018671 300.1319 185.3084 14.46790102907715
IRIDIUM 33 DEB          
1 33881U 97051BA  26164.14098109  .00010818  00000+0  21218-2 0  9999
2 33881  86.3861  27.0895 0053342 280.7069 205.5516 14.61735560901605
IRIDIUM 33 DEB          
1 33884U 97051BD  26163.78607267  .00015206  00000+0  18709-2 0  9999
2 33884  86.3658 287.2593 0011171  45.8751  80.9209 14.82857072915402
IRIDIUM 33 DEB          
1 33886U 97051BF  26164.30613749  .00000425  00000+0  13889-3 0  9994
2 33886  86.3833 350.3793 0014560  18.0368 155.7880 14.36257985906721
IRIDIUM 33 DEB          
1 33887U 97051BG  26164.10292387  .00000362  00000+0  11446-3 0  9991
2 33887  86.3033 284.8035 0006634  23.4954 152.6045 14.37394490907845
IRIDIUM 33 DEB          
1 33953U 97051BN  26164.22417456  .00003552  00000+0  78275-3 0  9991
2 33953  86.3850 334.4754 0015594 196.3706 340.6064 14.57107827909598
IRIDIUM 33 DEB          
1 33960U 97051BV  26164.11532094  .00013888  00000+0  12969-2 0  9993
2 33960  86.2556 202.8516 0004790 118.2863 294.8032 14.94075308915833
IRIDIUM 33 DEB          
1 33966U 97051CB  26164.23545804  .00001551  00000+0  39254-3 0  9996
2 33966  86.3915 327.6765 0005957 328.1023 209.3232 14.50365557910868
IRIDIUM 33 DEB          
1 34071U 97051CE  26164.12648551  .00001829  00000+0  46374-3 0  9994
2 34071  86.3434 298.4990 0006624 203.1973 156.8933 14.50355842909773
IRIDIUM 33 DEB          
1 34077U 97051CL  26163.89274044  .00007708  00000+0  13417-2 0  9998
2 34077  86.3845 331.0572 0011386 116.9188   5.0817 14.67939950910027
IRIDIUM 33 DEB          
1 34079U 97051CN  26164.10217887  .00016010  00000+0  16751-2 0  9997
2 34079  86.3729 285.2610 0007475  70.6190  52.8225 14.89522303916872
IRIDIUM 33 DEB          
1 34088U 97051CX  26164.14990937  .00037655  00000+0  27231-2 0  9998
2 34088  86.3766 306.0142 0002693 264.3362 219.9566 15.03867576914722
IRIDIUM 33 DEB          
1 34091U 97051DA  26163.51231753  .00024719  00000+0  22403-2 0  9999
2 34091  86.3488 342.6553 0027337  14.0947 346.1039 14.94948510905725
IRIDIUM 33 DEB          
1 34097U 97051DG  26163.31089254  .00003226  00000+0  10581-2 0  9994
2 34097  86.1972 281.1503 0083213 127.5576 233.3217 14.36143054897240
IRIDIUM 33 DEB          
1 34145U 97051DY  26164.25331956  .00002774  00000+0  79985-3 0  9992
2 34145  86.2109 251.1162 0051204 209.2683 150.5648 14.43620145902702
IRIDIUM 33 DEB          
1 34146U 97051DZ  26163.72019486  .00002470  00000+0  62815-3 0  9992
2 34146  86.2816 269.3168 0025119 343.4341 143.0282 14.50179806907430
IRIDIUM 33 DEB          
1 34159U 97051EN  26164.23059161  .00000889  00000+0  28056-3 0  9998
2 34159  86.3504 330.4237 0029368  51.3165 309.0654 14.38947832905832
IRIDIUM 33 DEB          
1 34350U 97051ES  26163.79204300  .00000966  00000+0  26601-3 0  9998
2 34350  86.3259 283.7784 0018883 252.4322 239.6592 14.45880496909235
IRIDIUM 33 DEB          
1 34366U 97051FJ  26164.22665802  .00004387  00000+0  99598-3 0  9998
2 34366  86.3680 329.8307 0018319 243.4359 297.3187 14.55745368908359
IRIDIUM 33 DEB          
1 34375U 97051FT  26163.86905837  .00000677  00000+0  30491-3 0  9997
2 34375  86.4292 109.2749 0099066 268.5479 145.9267 14.18338287892938
IRIDIUM 33 DEB          
1 34376U 97051FU  26164.05361550  .00008890  00000+0  16130-2 0  9996
2 34376  86.2939 284.2979 0022660 267.7957  92.0661 14.65977176906756
IRIDIUM 33 DEB          
1 34486U 97051GB  26164.08794696  .00035275  00000+0  23018-2 0  9992
2 34486  86.3817 286.9724 0007663 167.8975   7.2186 15.07687917917230
IRIDIUM 33 DEB          
1 34487U 97051GC  26163.61834341  .00000579  00000+0  16465-3 0  9991
2 34487  86.3420 294.0653 0028860 247.1885 123.9314 14.43484897908720
IRIDIUM 33 DEB          
1 34492U 97051GH  26164.27556346  .00004034  00000+0  13312-2 0  9993
2 34492  86.4700 260.6080 0178181  10.9761  42.1479 14.29231133876637
IRIDIUM 33 DEB          
1 34497U 97051GN  26164.23861633  .00001558  00000+0  59779-3 0  9998
2 34497  86.2776 334.4156 0081334 109.6360  71.0652 14.28090163894876
IRIDIUM 33 DEB          
1 34508U 97051GZ  26164.05873533  .00002378  00000+0  73758-3 0  9997
2 34508  86.3710  25.2327 0061925 295.9028  63.5796 14.39683677899316
IRIDIUM 33 DEB          
1 34521U 97051HN  26164.13279307  .00005838  00000+0  10679-2 0  9996
2 34521  86.3774 310.0868 0003686  35.8111 324.3349 14.65744075911428
IRIDIUM 33 DEB          
1 34525U 97051HS  26164.20736300  .00000987  00000+0  28685-3 0  9996
2 34525  86.3723 328.9504 0004025 179.5183 357.6604 14.43368256907195
IRIDIUM 33 DEB          
1 34529U 97051HW  26164.15324181  .00000635  00000+0  19208-3 0  9995
2 34529  86.3628 317.6541 0003840 346.9998  13.1102 14.40852003907683
IRIDIUM 33 DEB          
1 34538U 97051JF  26164.08788733  .00002014  00000+0  58293-3 0  9994
2 34538  86.2749 285.6098 0036243  82.9304 337.6081 14.43681250903861
IRIDIUM 33 DEB          
1 34540U 97051JH  26164.19300208  .00008060  00000+0  10810-2 0  9995
2 34540  86.3105 223.8957 0012609 246.3479 168.1648 14.79208733917151
IRIDIUM 33 DEB          
1 34648U 97051JZ  26161.37864411  .00005607  00000+0  24954-2 0  9990
2 34648  86.3966 209.2454 0177546  92.5585 269.5938 14.14678955874983
IRIDIUM 33 DEB          
1 34651U 97051KC  26163.47160781  .00006636  00000+0  23990-2 0  9998
2 34651  86.2772  63.0019 0134895 340.6094  18.9992 14.28444304884886
IRIDIUM 33 DEB          
1 34652U 97051KD  26163.54970035  .00003623  00000+0  68860-3 0  9997
2 34652  86.3298 258.9216 0028410  40.2348 334.1087 14.63656370911421
IRIDIUM 33 DEB          
1 34690U 97051KM  26164.19577878  .00003845  00000+0  87084-3 0  9994
2 34690  86.3767 317.6556 0012309 116.4909  64.1505 14.55884966907484
IRIDIUM 33 DEB          
1 34696U 97051KT  26162.65989341  .00025102  00000+0  34519-2 0  9995
2 34696  86.1782 302.4170 0056657 260.3805 116.5990 14.77068888893347
IRIDIUM 33 DEB          
1 34765U 97051LJ  26164.17962883  .00000986  00000+0  30086-3 0  9992
2 34765  86.3379 314.4601 0015386 344.8068 196.5686 14.40956923902407
IRIDIUM 33 DEB          
1 34833U 97051MH  26163.49011378  .00002739  00000+0  65029-3 0  9999
2 34833  86.3924 332.6041 0018468 200.1695 214.4447 14.53532978903548
IRIDIUM 33 DEB          
1 34870U 97051MQ  26161.95461801  .00006616  00000+0  86889-3 0  9994
2 34870  86.3114 231.2668 0013073 282.8947 255.7733 14.80066562915734
IRIDIUM 33 DEB          
1 34896U 97051MY  26163.53664446  .00003806  00000+0  65675-3 0  9996
2 34896  86.3290 245.0063 0022989 317.9123 105.9547 14.68067669902854
IRIDIUM 33 DEB          
1 34926U 97051NF  26163.59762530  .00012735  00000+0  24303-2 0  9992
2 34926  86.1311 283.3529 0070215  40.2842 336.4963 14.62290028891087
IRIDIUM 33 DEB          
1 34985U 97051NR  26163.24416166  .00001505  00000+0  44463-3 0  9993
2 34985  86.3694 339.4160 0020715 351.0840 185.2606 14.42790523897918
IRIDIUM 33 DEB          
1 35051U 97051NX  26160.09992203  .00001708  00000+0  45058-3 0  9995
2 35051  86.3218 291.0652 0007670 199.0601 161.0317 14.48442164895778
IRIDIUM 33 DEB          
1 35052U 97051NY  26163.12010456  .00000455  00000+0  14173-3 0  9996
2 35052  86.3294 302.7163 0010763 197.3222 162.7611 14.38721014898835
IRIDIUM 33 DEB          
1 35080U 97051PF  26164.16163581  .00333349  00000+0  11011-1 0  9997
2 35080  86.2146 322.7109 0029177 241.8721 117.9578 15.29626314724314
IRIDIUM 33 DEB          
1 35297U 97051PM  26160.25658166  .00001599  00000+0  44362-3 0  9997
2 35297  86.3875 346.5345 0013685 272.7660  87.1975 14.45942033730055
IRIDIUM 33 DEB          
1 35299U 97051PP  26162.18017891  .00003234  00000+0  95656-3 0  9997
2 35299  86.2849 314.5400 0053959 225.1270 314.6656 14.42344663889300
IRIDIUM 33 DEB          
1 35480U 97051QA  26163.12638280  .00001830  00000+0  46076-3 0  9997
2 35480  86.3533 306.2223 0012466 210.5659 149.4821 14.50647255896602
IRIDIUM 33 DEB          
1 35484U 97051QE  26162.00923493  .00046959  00000+0  24530-2 0  9991
2 35484  86.3434 267.0726 0015187 186.7258 173.3781 15.15602150647310
